[{"OBJECT_NAME":"STARLINK-3934","OBJECT_ID":"2022-053V","EPOCH":"2026-03-09T12:01:08.252544","MEAN_MOTION":15.08829207,"ECCENTRICITY":0.00012583,"INCLINATION":53.2177,"RA_OF_ASC_NODE":144.9704,"ARG_OF_PERICENTER":100.4332,"MEAN_ANOMALY":259.6802,"EPHEMERIS_TYPE":0,"CLASSIFICATION_TYPE":"U","NORAD_CAT_ID":52675,"ELEMENT_SET_NO":999,"REV_AT_EPOCH":21114,"BSTAR":-8.8617308e-5,"MEAN_MOTION_DOT":-1.697e-5,"MEAN_MOTION_DDOT":0},{"OBJECT_NAME":"NOAA 17 DEB","OBJECT_ID":"2002-032AW","EPOCH":"2026-03-09T06:42:02.833344","MEAN_MOTION":15.0155296,"ECCENTRICITY":0.0036655,"INCLINATION":98.9692,"RA_OF_ASC_NODE":191.508,"ARG_OF_PERICENTER":264.8759,"MEAN_ANOMALY":94.8277,"EPHEMERIS_TYPE":0,"CLASSIFICATION_TYPE":"U","NORAD_CAT_ID":48713,"ELEMENT_SET_NO":999,"REV_AT_EPOCH":26502,"BSTAR":0.0031489084,"MEAN_MOTION_DOT":0.00041514,"MEAN_MOTION_DDOT":0}]
